COMMENT,ORIGINATOR,NORAD_CAT_ID,OBJECT_NAME,OBJECT_TYPE,CLASSIFICATION_TYPE,INTLDES,EPOCH,EPOCH_MICROSECONDS,MEAN_MOTION,ECCENTRICITY,INCLINATION,RA_OF_ASC_NODE,ARG_OF_PERICENTER,MEAN_ANOMALY,EPHEMERIS_TYPE,ELEMENT_SET_NO,REV_AT_EPOCH,BSTAR,MEAN_MOTION_DOT,MEAN_MOTION_DDOT,FILE,TLE_LINE0,TLE_LINE1,TLE_LINE2,OBJECT_ID,OBJECT_NUMBER,SEMIMAJOR_AXIS,PERIOD,APOGEE,PERIGEE,DECAYED
"GENERATED VIA SPACETRACK.ORG API","18 SPCS","55094","SPACEBEE-165","PAYLOAD","U","23001CP","2023-05-28 16:51:14","271264","15.19383229","0.0015416","97.4777","208.983","75.2907","285.0035","0","999","2214","0.00072953","0.00015434","0","3919546","0 SPACEBEE-165","1 55094U 23001CP  23148.70224851  .00015434  00000-0  72953-3 0  9992","2 55094  97.4777 208.9830 0015416  75.2907 285.0035 15.19383229 22148","2023-001CP","55094","6885.840","94.775","518.321","497.090","0"
"GENERATED VIA SPACETRACK.ORG API","18 SPCS","55094","SPACEBEE-165","PAYLOAD","U","23001CP","2023-05-29 03:55:05","93760","15.19395788","0.0015401","97.4778","209.4396","73.8834","286.4094","0","999","2221","0.00066835","0.00014137","0","3920065","0 SPACEBEE-165","1 55094U 23001CP  23149.16325340  .00014137  00000-0  66835-3 0  9999","2 55094  97.4778 209.4396 0015401  73.8834 286.4094 15.19395788 22210","2023-001CP","55094","6885.803","94.775","518.272","497.063","0"
"GENERATED VIA SPACETRACK.ORG API","18 SPCS","55094","SPACEBEE-165","PAYLOAD","U","23001CP","2023-05-29 18:08:35","650752","15.19412426","0.0015367","97.4777","210.0266","72.0456","288.2453","0","999","2230","0.00064202","0.00013582","0","3920354","0 SPACEBEE-165","1 55094U 23001CP  23149.75596818  .00013582  00000-0  64202-3 0  9993","2 55094  97.4777 210.0266 0015367  72.0456 288.2453 15.19412426 22303","2023-001CP","55094","6885.752","94.773","518.199","497.036","0"
"GENERATED VIA SPACETRACK.ORG API","18 SPCS","55094","SPACEBEE-165","PAYLOAD","U","23001CP","2023-05-30 03:37:35","704416","15.19422898","0.0015328","97.4777","210.4179","70.7676","289.5216","0","999","2236","0.00060103","0.00012713","0","3920680","0 SPACEBEE-165","1 55094U 23001CP  23150.15110769  .00012713  00000-0  60103-3 0  9997","2 55094  97.4777 210.4179 0015328  70.7676 289.5216 15.19422898 22367","2023-001CP","55094","6885.721","94.773","518.140","497.031","0"
"GENERATED VIA SPACETRACK.ORG API","18 SPCS","55094","SPACEBEE-165","PAYLOAD","U","23001CP","2023-05-30 16:16:15","406176","15.19437837","0.0015242","97.4776","210.9397","69.0851","291.2014","0","999","2244","0.00063805","0.00013507","0","3921192","0 SPACEBEE-165","1 55094U 23001CP  23150.67795609  .00013507  00000-0  63805-3 0  9990","2 55094  97.4776 210.9397 0015242  69.0851 291.2014 15.19437837 22448","2023-001CP","55094","6885.675","94.772","518.036","497.045","0"
"GENERATED VIA SPACETRACK.ORG API","18 SPCS","55094","SPACEBEE-165","PAYLOAD","U","23001CP","2023-05-31 03:20:04","745184","15.19452619","0.001518","97.4777","211.3961","67.5253","292.7587","0","999","2251","0.00068978","0.00014616","0","3921767","0 SPACEBEE-165","1 55094U 23001CP  23151.13894381  .00014616  00000-0  68978-3 0  9997","2 55094  97.4777 211.3961 0015180  67.5253 292.7587 15.19452619 22515","2023-001CP","55094","6885.631","94.771","517.948","497.043","0"
"GENERATED VIA SPACETRACK.ORG API","18 SPCS","55094","SPACEBEE-165","PAYLOAD","U","23001CP","2023-05-31 17:33:33","345216","15.1947233","0.0015092","97.4776","211.9831","65.5541","294.7266","0","999","2260","0.00077252","0.0001639","0","3922002","0 SPACEBEE-165","1 55094U 23001CP  23151.73163594  .00016390  00000-0  77252-3 0  9994","2 55094  97.4776 211.9831 0015092  65.5541 294.7266 15.19472330 22604","2023-001CP","55094","6885.571","94.770","517.828","497.045","0"
"GENERATED VIA SPACETRACK.ORG API","18 SPCS","55094","SPACEBEE-165","PAYLOAD","U","23001CP","2023-05-31 17:33:33","345216","15.1947233","0.0015092","97.4776","211.9831","65.5541","294.7266","0","999","2260","0.00077252","0.0001639","0","3922037","0 SPACEBEE-165","1 55094U 23001CP  23151.73163594  .00016390  00000-0  77252-3 0  9994","2 55094  97.4776 211.9831 0015092  65.5541 294.7266 15.19472330 22604","2023-001CP","55094","6885.571","94.770","517.828","497.045","0"
"GENERATED VIA SPACETRACK.ORG API","18 SPCS","55094","SPACEBEE-165","PAYLOAD","U","23001CP","2023-06-01 09:21:50","994720","15.19495757","0.0015036","97.4776","212.6352","63.3367","296.9406","0","999","2270","0.00085087","0.00018075","0","3922365","0 SPACEBEE-165","1 55094U 23001CP  23152.39017355  .00018075  00000-0  85087-3 0  9997","2 55094  97.4776 212.6352 0015036  63.3367 296.9406 15.19495757 22709","2023-001CP","55094","6885.500","94.768","517.719","497.012","0"
"GENERATED VIA SPACETRACK.ORG API","18 SPCS","55094","SPACEBEE-165","PAYLOAD","U","23001CP","2023-06-02 02:44:57","379200","15.19521683","0.0015001","97.4778","213.3526","60.9596","299.3139","0","999","2281","0.00083699","0.00017792","0","3922784","0 SPACEBEE-165","1 55094U 23001CP  23153.11455300  .00017792  00000-0  83699-3 0  9996","2 55094  97.4778 213.3526 0015001  60.9596 299.3139 15.19521683 22811","2023-001CP","55094","6885.422","94.767","517.616","496.958","0"
"GENERATED VIA SPACETRACK.ORG API","18 SPCS","55094","SPACEBEE-165","PAYLOAD","U","23001CP","2023-06-02 02:44:57","379200","15.19521683","0.0015001","97.4778","213.3526","60.9596","299.3139","0","999","2281","0.00083699","0.00017792","0","3923342","0 SPACEBEE-165","1 55094U 23001CP  23153.11455300  .00017792  00000-0  83699-3 0  9996","2 55094  97.4778 213.3526 0015001  60.9596 299.3139 15.19521683 22811","2023-001CP","55094","6885.422","94.767","517.616","496.958","0"
"GENERATED VIA SPACETRACK.ORG API","18 SPCS","55094","SPACEBEE-165","PAYLOAD","U","23001CP","2023-06-02 21:42:52","301664","15.1954604","0.0014941","97.4777","214.1353","58.5255","301.7438","0","999","2293","0.00075128","0.0001597","0","3923570","0 SPACEBEE-165","1 55094U 23001CP  23153.90477201  .00015970  00000-0  75128-3 0  9991","2 55094  97.4777 214.1353 0014941  58.5255 301.7438 15.19546040 22931","2023-001CP","55094","6885.349","94.765","517.501","496.926","0"
"GENERATED VIA SPACETRACK.ORG API","18 SPCS","55094","SPACEBEE-165","PAYLOAD","U","23001CP","2023-06-03 04:02:10","345920","15.19554124","0.001493","97.4777","214.3963","57.6382","302.6295","0","999","2297","0.00071231","0.00015139","0","3924057","0 SPACEBEE-165","1 55094U 23001CP  23154.16817530  .00015139  00000-0  71231-3 0  9991","2 55094  97.4777 214.3963 0014930  57.6382 302.6295 15.19554124 22976","2023-001CP","55094","6885.324","94.765","517.469","496.909","0"
"GENERATED VIA SPACETRACK.ORG API","18 SPCS","55094","SPACEBEE-165","PAYLOAD","U","23001CP","2023-06-03 04:02:10","345920","15.19554124","0.001493","97.4777","214.3963","57.6382","302.6295","0","999","2297","0.00071231","0.00015139","0","3924076","0 SPACEBEE-165","1 55094U 23001CP  23154.16817530  .00015139  00000-0  71231-3 0  9991","2 55094  97.4777 214.3963 0014930  57.6382 302.6295 15.19554124 22976","2023-001CP","55094","6885.324","94.765","517.469","496.909","0"
"GENERATED VIA SPACETRACK.ORG API","18 SPCS","55094","SPACEBEE-165","PAYLOAD","U","23001CP","2023-06-03 21:25:14","449440","15.19574142","0.0014867","97.4776","215.114","55.4003","304.8631","0","999","2308","0.00068478","0.00014559","0","3924324","0 SPACEBEE-165","1 55094U 23001CP  23154.89252835  .00014559  00000-0  68478-3 0  9996","2 55094  97.4776 215.1140 0014867  55.4003 304.8631 15.19574142 23089","2023-001CP","55094","6885.264","94.763","517.365","496.892","0"
"GENERATED VIA SPACETRACK.ORG API","18 SPCS","55094","SPACEBEE-165","PAYLOAD","U","23001CP","2023-06-04 08:29:00","238272","15.19587138","0.0014825","97.4772","215.5706","53.817","306.4433","0","999","2315","0.00067678","0.00014393","0","3924838","0 SPACEBEE-165","1 55094U 23001CP  23155.35347498  .00014393  00000-0  67678-3 0  9995","2 55094  97.4772 215.5706 0014825  53.8170 306.4433 15.19587138 23153","2023-001CP","55094","6885.224","94.763","517.297","496.882","0"
"GENERATED VIA SPACETRACK.ORG API","18 SPCS","55094","SPACEBEE-165","PAYLOAD","U","23001CP","2023-06-04 08:29:00","238272","15.19587138","0.0014825","97.4772","215.5706","53.817","306.4433","0","999","2315","0.00067678","0.00014393","0","3924842","0 SPACEBEE-165","1 55094U 23001CP  23155.35347498  .00014393  00000-0  67678-3 0  9995","2 55094  97.4772 215.5706 0014825  53.8170 306.4433 15.19587138 23153","2023-001CP","55094","6885.224","94.763","517.297","496.882","0"
"GENERATED VIA SPACETRACK.ORG API","18 SPCS","55094","SPACEBEE-165","PAYLOAD","U","23001CP","2023-06-04 19:32:45","672864","15.1960113","0.0014759","97.4768","216.0273","52.2957","307.9613","0","999","2322","0.00069403","0.00014768","0","3925173","0 SPACEBEE-165","1 55094U 23001CP  23155.81441751  .00014768  00000-0  69403-3 0  9997","2 55094  97.4768 216.0273 0014759  52.2957 307.9613 15.19601130 23228","2023-001CP","55094","6885.182","94.762","517.209","496.885","0"
"GENERATED VIA SPACETRACK.ORG API","18 SPCS","55094","SPACEBEE-165","PAYLOAD","U","23001CP","2023-06-05 08:11:19","977216","15.1961755","0.001467","97.4766","216.5492","50.482","309.7709","0","999","2330","0.00070899","0.00015095","0","3925691","0 SPACEBEE-165","1 55094U 23001CP  23156.34120344  .00015095  00000-0  70899-3 0  9993","2 55094  97.4766 216.5492 0014670  50.4820 309.7709 15.19617550 23303","2023-001CP","55094","6885.133","94.761","517.098","496.897","0"
"GENERATED VIA SPACETRACK.ORG API","18 SPCS","55094","SPACEBEE-165","PAYLOAD","U","23001CP","2023-06-05 19:15:04","589280","15.1963312","0.0014602","97.4764","217.0058","48.8515","311.3977","0","999","2337","0.00074954","0.00015971","0","3925751","0 SPACEBEE-165","1 55094U 23001CP  23156.80213645  .00015971  00000-0  74954-3 0  9990","2 55094  97.4764 217.0058 0014602  48.8515 311.3977 15.19633120 23376","2023-001CP","55094","6885.086","94.760","517.004","496.897","0"
